IRIDIUM 155             
1 43573U 18061E   25356.80604743  .00000080  00000+0  21520-4 0  9992
2 43573  86.3983 130.4310 0002158  99.3366 260.8074 14.34218172388071
IRIDIUM 154             
1 43574U 18061F   25356.85678747  .00000123  00000+0  36742-4 0  9993
2 43574  86.3983 130.5343 0002046  93.1220 267.0210 14.34218566388131
IRIDIUM 163             
1 43575U 18061G   25356.83775949  .00000247  00000+0  81113-4 0  9993
2 43575  86.3998 130.4638 0001843  95.6345 264.5061 14.34217713388109
IRIDIUM 156             
1 43576U 18061H   25356.81239016  .00000276  00000+0  91421-4 0  9997
2 43576  86.3981 130.4810 0002225  99.0456 261.0991 14.34218975388093
IRIDIUM 164             
1 43577U 18061J   25356.23522470  .00000240  00000+0  78656-4 0  9999
2 43577  86.3983 130.7596 0002073  88.9745 271.1689 14.34219073388051
IRIDIUM 159             
1 43578U 18061K   25356.83141693  .00000265  00000+0  87655-4 0  9996
2 43578  86.3990 130.4512 0001942  91.7377 268.4041 14.34218526388101
IRIDIUM 180             
1 43922U 19002A   25356.62160757  .00000285  00000+0  94842-4 0  9992
2 43922  86.3958  67.4100 0001944  95.9544 264.1874 14.34218567363682
IRIDIUM 176             
1 43923U 19002B   25356.71481634  .00000886  00000+0  13663-3 0  9991
2 43923  86.6080  67.3402 0002367  95.7032 264.4455 14.72263383373289
IRIDIUM 168             
1 43924U 19002C   25356.47572759  .00000288  00000+0  95822-4 0  9998
2 43924  86.3962  67.5435 0002143  98.2831 261.8608 14.34217830363645
IRIDIUM 173             
1 43925U 19002D   25356.67234398  .00000289  00000+0  96077-4 0  9999
2 43925  86.3959  67.3572 0002114 101.9956 258.1477 14.34218518363658
IRIDIUM 169             
1 43926U 19002E   25356.71969709  .00000375  00000+0  11620-3 0  9992
2 43926  86.4225  98.9901 0002575 121.6826 238.4623 14.38612488364853
IRIDIUM 172             
1 43927U 19002F   25356.66600481  .00000255  00000+0  84138-4 0  9998
2 43927  86.3958  67.3671 0001992  94.8213 265.3210 14.34217689363662
IRIDIUM 175             
1 43928U 19002G   25356.77807711  .00000813  00000+0  12498-3 0  9995
2 43928  86.1497   9.1511 0003165  82.2828 277.8747 14.72252720373282
IRIDIUM 171             
1 43929U 19002H   25356.92606128  .00000282  00000+0  93532-4 0  9991
2 43929  86.3968  67.5456 0002445  97.0772 263.0702 14.34218016363696
IRIDIUM 170             
1 43930U 19002J   25356.72101638  .00000867  00000+0  13362-3 0  9998
2 43930  86.6081  67.3413 0002302  91.4670 268.6811 14.72258083373294
IRIDIUM 167             
1 43931U 19002K   25356.71040516 -.00000003  00000+0 -82571-5 0  9999
2 43931  86.3957  67.3693 0002464 101.6740 258.4733 14.34217802363667
IRIDIUM 181             
1 56726U 23068S   25356.87114043  .00000399  00000+0  11259-3 0  9995
2 56726  86.4519 130.4949 0002259  82.9428 277.2030 14.43314271137004
IRIDIUM 177             
1 56727U 23068T   25356.61201118  .00001108  00000+0  14236-3 0  9995
2 56727  86.1957  52.6411 0002200  86.5499 273.5974 14.80230923140249
IRIDIUM 174             
1 56728U 23068U   25356.91256538  .00001007  00000+0  15584-3 0  9990
2 56728  86.6088  67.3909 0002058  90.6014 269.5439 14.72253036140089
IRIDIUM 178             
1 56729U 23068V   25356.80388202  .00001343  00000+0  17333-3 0  9990
2 56729  86.6544  99.0948 0002490  91.6623 268.4884 14.80227618140278
IRIDIUM 179             
1 56730U 23068W   25356.79851320  .00001254  00000+0  16153-3 0  9996
2 56730  86.6788 107.5507 0002401  89.3146 270.8351 14.80236921140275
